TOMORROW-S2             
1 60485U 24149T   26068.75188364  .00008133  00000+0  27683-3 0  9990
2 60485  97.3857 150.0385 0001648 234.3331 125.7757 15.30674935 86869
STARLINK-35027          
1 65466U 25195J   26068.76137784  .00012303  00000+0  42683-3 0  9998
2 65466  53.1585 257.9192 0001425 129.1646 230.9482 15.30200090 30003
